IRIDIUM 166             
1 43570U 18061B   24011.21155541  .00000376  00000+0  12717-3 0  9993
2 43570  86.3945  67.8455 0002019  86.2760 273.8667 14.34219640286124
IRIDIUM 158             
1 43571U 18061C   24010.20308445  .00000330  00000+0  11076-3 0  9992
2 43571  86.3946  68.2761 0001847  95.5100 264.6307 14.34216814285948
IRIDIUM 165             
1 43572U 18061D   24011.20521288  .00000382  00000+0  12927-3 0  9999
2 43572  86.3947  67.8867 0001866  96.8415 263.2993 14.34219040286116
IRIDIUM 155             
1 43573U 18061E   24011.23692671  .00000418  00000+0  14221-3 0  9997
2 43573  86.3943  67.7863 0002308  88.3207 271.8253 14.34218692286098
IRIDIUM 154             
1 43574U 18061F   24011.21789836  .00000397  00000+0  13482-3 0  9990
2 43574  86.3948  67.8844 0002338 100.2869 259.8590 14.34218831286135
IRIDIUM 163             
1 43575U 18061G   24010.22210988  .00000326  00000+0  10918-3 0  9991
2 43575  86.3946  68.2438 0002263  96.4341 263.7113 14.34219388285969
IRIDIUM 156             
1 43576U 18061H   24010.68511979  .00000463  00000+0  15815-3 0  9999
2 43576  86.3944  68.0563 0001910  91.0995 269.0420 14.34217521286013
IRIDIUM 164             
1 43577U 18061J   24011.15447158  .00000399  00000+0  13552-3 0  9994
2 43577  86.3947  67.8862 0001877  96.6456 263.4953 14.34216759286135
